[{"OBJECT_NAME":"OBJECT B","OBJECT_ID":"2024-174B","EPOCH":"2026-03-09T23:26:11.570784","MEAN_MOTION":15.09493991,"ECCENTRICITY":0.00195829,"INCLINATION":97.4508,"RA_OF_ASC_NODE":75.153,"ARG_OF_PERICENTER":270.277,"MEAN_ANOMALY":89.6216,"EPHEMERIS_TYPE":0,"CLASSIFICATION_TYPE":"U","NORAD_CAT_ID":61239,"ELEMENT_SET_NO":999,"REV_AT_EPOCH":8042,"BSTAR":0.00031274192,"MEAN_MOTION_DOT":4.97e-5,"MEAN_MOTION_DDOT":0},{"OBJECT_NAME":"STARLINK-35289","OBJECT_ID":"2025-218U","EPOCH":"2026-03-09T13:44:46.798368","MEAN_MOTION":15.05648513,"ECCENTRICITY":0.0002126,"INCLINATION":97.603,"RA_OF_ASC_NODE":292.8624,"ARG_OF_PERICENTER":89.5694,"MEAN_ANOMALY":270.5777,"EPHEMERIS_TYPE":0,"CLASSIFICATION_TYPE":"U","NORAD_CAT_ID":65809,"ELEMENT_SET_NO":999,"REV_AT_EPOCH":2495,"BSTAR":0.00029108,"MEAN_MOTION_DOT":4.142e-5,"MEAN_MOTION_DDOT":0}]
